ONEWEB-0403             
1 50483U 21132Q   26115.15603041 -.00005096  00000+0 -12980-1 0  9996
2 50483  87.9203 346.0025 0001831  83.2546 276.8795 13.18610039214601
ONEWEB-0404             
1 50484U 21132R   26115.22896039  .00000279  00000+0  75201-3 0  9999
2 50484  87.8917  31.5963 0001622  86.8978 273.2336 13.11415649208750
ONEWEB-0405             
1 50485U 21132S   26115.17047583  .00000002  00000+0 -26975-4 0  9996
2 50485  87.9210 345.9830 0001397  69.3338 290.7944 13.18774358215005
ONEWEB-0406             
1 50486U 21132T   26114.70571153 -.00002923  00000+0 -74590-2 0  9999
2 50486  87.9199 346.0966 0001393 102.8222 257.3066 13.18585906214579
ONEWEB-0407             
1 50487U 21132U   26115.15437429 -.00000178  00000+0 -48419-3 0  9999
2 50487  87.9207 345.9953 0001926  79.3352 280.7997 13.18589701214578
ONEWEB-0409             
1 50488U 21132V   26115.22726527  .00000398  00000+0  10877-2 0  9996
2 50488  87.8929  31.5813 0001595  84.0340 276.0970 13.11415763208643
ONEWEB-0412             
1 50489U 21132W   26115.14275060 -.00000271  00000+0 -72106-3 0  9995
2 50489  87.9198 346.0087 0002148  84.2480 275.8897 13.18628335214664
ONEWEB-0413             
1 50490U 21132X   26115.14775269  .00000102  00000+0  22523-3 0  9992
2 50490  87.9196 346.0096 0002067  81.5122 278.6245 13.18611991214609
ONEWEB-0414             
1 50491U 21132Y   26115.13279545 -.00001135  00000+0 -29135-2 0  9992
2 50491  87.9206 345.9896 0001992  87.0309 273.1051 13.18663639214636
ONEWEB-0417             
1 50492U 21132Z   26115.14112740 -.00000825  00000+0 -21282-2 0  9997
2 50492  87.9200 346.0111 0001538  77.3610 282.7694 13.18621717214614
ONEWEB-0418             
1 50493U 21132AA  26115.15093966  .00000047  00000+0  87446-4 0  9997
2 50493  87.9208 346.0043 0001510  91.8544 268.2761 13.18591081214674
ONEWEB-0419             
1 50494U 21132AB  26115.09319467 -.00000022  00000+0 -87864-4 0  9997
2 50494  87.9208 346.0152 0001473  82.3424 277.7876 13.18666764214589
ONEWEB-0420             
1 50495U 21132AC  26115.13445043 -.00000370  00000+0 -97090-3 0  9990
2 50495  87.9196 346.0154 0001935  76.4376 283.6972 13.18654357214589
ONEWEB-0421             
1 50496U 21132AD  26115.12781288  .00000119  00000+0  27035-3 0  9995
2 50496  87.9205 346.0114 0002000  91.8281 268.3081 13.18686070214620
ONEWEB-0424             
1 50497U 21132AE  26115.08845328 -.00000488  00000+0 -12721-2 0  9993
2 50497  87.9202 346.0148 0001442  81.3370 278.7926 13.18565197214648
ONEWEB-0426             
1 50498U 21132AF  26115.20032236  .00000115  00000+0  25816-3 0  9999
2 50498  87.9224 345.9820 0002002 103.3141 256.8214 13.18690448214603
