[{"OBJECT_NAME":"ONEWEB-0403","OBJECT_ID":"2021-132Q","EPOCH":"2026-04-25T03:44:41.027424","MEAN_MOTION":13.18610039,"ECCENTRICITY":0.0001831,"INCLINATION":87.9203,"RA_OF_ASC_NODE":346.0025,"ARG_OF_PERICENTER":83.2546,"MEAN_ANOMALY":276.8795,"EPHEMERIS_TYPE":0,"CLASSIFICATION_TYPE":"U","NORAD_CAT_ID":50483,"ELEMENT_SET_NO":999,"REV_AT_EPOCH":21460,"BSTAR":-0.01298,"MEAN_MOTION_DOT":-5.096e-05,"MEAN_MOTION_DDOT":0.0},{"OBJECT_NAME":"ONEWEB-0404","OBJECT_ID":"2021-132R","EPOCH":"2026-04-25T05:29:42.177696","MEAN_MOTION":13.11415649,"ECCENTRICITY":0.0001622,"INCLINATION":87.8917,"RA_OF_ASC_NODE":31.5963,"ARG_OF_PERICENTER":86.8978,"MEAN_ANOMALY":273.2336,"EPHEMERIS_TYPE":0,"CLASSIFICATION_TYPE":"U","NORAD_CAT_ID":50484,"ELEMENT_SET_NO":999,"REV_AT_EPOCH":20875,"BSTAR":0.00075201,"MEAN_MOTION_DOT":2.79e-06,"MEAN_MOTION_DDOT":0.0},{"OBJECT_NAME":"ONEWEB-0405","OBJECT_ID":"2021-132S","EPOCH":"2026-04-25T04:05:29.111712","MEAN_MOTION":13.18774358,"ECCENTRICITY":0.0001397,"INCLINATION":87.921,"RA_OF_ASC_NODE":345.983,"ARG_OF_PERICENTER":69.3338,"MEAN_ANOMALY":290.7944,"EPHEMERIS_TYPE":0,"CLASSIFICATION_TYPE":"U","NORAD_CAT_ID":50485,"ELEMENT_SET_NO":999,"REV_AT_EPOCH":21500,"BSTAR":-2.6975000000000002e-05,"MEAN_MOTION_DOT":2e-08,"MEAN_MOTION_DDOT":0.0},{"OBJECT_NAME":"ONEWEB-0406","OBJECT_ID":"2021-132T","EPOCH":"2026-04-24T16:56:13.476192","MEAN_MOTION":13.18585906,"ECCENTRICITY":0.0001393,"INCLINATION":87.9199,"RA_OF_ASC_NODE":346.0966,"ARG_OF_PERICENTER":102.8222,"MEAN_ANOMALY":257.3066,"EPHEMERIS_TYPE":0,"CLASSIFICATION_TYPE":"U","NORAD_CAT_ID":50486,"ELEMENT_SET_NO":999,"REV_AT_EPOCH":21457,"BSTAR":-0.007459,"MEAN_MOTION_DOT":-2.923e-05,"MEAN_MOTION_DDOT":0.0},{"OBJECT_NAME":"ONEWEB-0407","OBJECT_ID":"2021-132U","EPOCH":"2026-04-25T03:42:17.938656","MEAN_MOTION":13.18589701,"ECCENTRICITY":0.0001926,"INCLINATION":87.9207,"RA_OF_ASC_NODE":345.9953,"ARG_OF_PERICENTER":79.3352,"MEAN_ANOMALY":280.7997,"EPHEMERIS_TYPE":0,"CLASSIFICATION_TYPE":"U","NORAD_CAT_ID":50487,"ELEMENT_SET_NO":999,"REV_AT_EPOCH":21457,"BSTAR":-0.00048419,"MEAN_MOTION_DOT":-1.78e-06,"MEAN_MOTION_DDOT":0.0},{"OBJECT_NAME":"ONEWEB-0409","OBJECT_ID":"2021-132V","EPOCH":"2026-04-25T05:27:15.719328","MEAN_MOTION":13.11415763,"ECCENTRICITY":0.0001595,"INCLINATION":87.8929,"RA_OF_ASC_NODE":31.5813,"ARG_OF_PERICENTER":84.034,"MEAN_ANOMALY":276.097,"EPHEMERIS_TYPE":0,"CLASSIFICATION_TYPE":"U","NORAD_CAT_ID":50488,"ELEMENT_SET_NO":999,"REV_AT_EPOCH":20864,"BSTAR":0.0010877,"MEAN_MOTION_DOT":3.98e-06,"MEAN_MOTION_DDOT":0.0},{"OBJECT_NAME":"ONEWEB-0412","OBJECT_ID":"2021-132W","EPOCH":"2026-04-25T03:25:33.651840","MEAN_MOTION":13.18628335,"ECCENTRICITY":0.0002148,"INCLINATION":87.9198,"RA_OF_ASC_NODE":346.0087,"ARG_OF_PERICENTER":84.248,"MEAN_ANOMALY":275.8897,"EPHEMERIS_TYPE":0,"CLASSIFICATION_TYPE":"U","NORAD_CAT_ID":50489,"ELEMENT_SET_NO":999,"REV_AT_EPOCH":21466,"BSTAR":-0.00072106,"MEAN_MOTION_DOT":-2.71e-06,"MEAN_MOTION_DDOT":0.0},{"OBJECT_NAME":"ONEWEB-0413","OBJECT_ID":"2021-132X","EPOCH":"2026-04-25T03:32:45.832416","MEAN_MOTION":13.18611991,"ECCENTRICITY":0.0002067,"INCLINATION":87.9196,"RA_OF_ASC_NODE":346.0096,"ARG_OF_PERICENTER":81.5122,"MEAN_ANOMALY":278.6245,"EPHEMERIS_TYPE":0,"CLASSIFICATION_TYPE":"U","NORAD_CAT_ID":50490,"ELEMENT_SET_NO":999,"REV_AT_EPOCH":21460,"BSTAR":0.00022523,"MEAN_MOTION_DOT":1.02e-06,"MEAN_MOTION_DDOT":0.0},{"OBJECT_NAME":"ONEWEB-0414","OBJECT_ID":"2021-132Y","EPOCH":"2026-04-25T03:11:13.526880","MEAN_MOTION":13.18663639,"ECCENTRICITY":0.0001992,"INCLINATION":87.9206,"RA_OF_ASC_NODE":345.9896,"ARG_OF_PERICENTER":87.0309,"MEAN_ANOMALY":273.1051,"EPHEMERIS_TYPE":0,"CLASSIFICATION_TYPE":"U","NORAD_CAT_ID":50491,"ELEMENT_SET_NO":999,"REV_AT_EPOCH":21463,"BSTAR":-0.0029135,"MEAN_MOTION_DOT":-1.135e-05,"MEAN_MOTION_DDOT":0.0},{"OBJECT_NAME":"ONEWEB-0417","OBJECT_ID":"2021-132Z","EPOCH":"2026-04-25T03:23:13.407360","MEAN_MOTION":13.18621717,"ECCENTRICITY":0.0001538,"INCLINATION":87.92,"RA_OF_ASC_NODE":346.0111,"ARG_OF_PERICENTER":77.361,"MEAN_ANOMALY":282.7694,"EPHEMERIS_TYPE":0,"CLASSIFICATION_TYPE":"U","NORAD_CAT_ID":50492,"ELEMENT_SET_NO":999,"REV_AT_EPOCH":21461,"BSTAR":-0.0021282000000000002,"MEAN_MOTION_DOT":-8.25e-06,"MEAN_MOTION_DDOT":0.0},{"OBJECT_NAME":"ONEWEB-0418","OBJECT_ID":"2021-132AA","EPOCH":"2026-04-25T03:37:21.186624","MEAN_MOTION":13.18591081,"ECCENTRICITY":0.000151,"INCLINATION":87.9208,"RA_OF_ASC_NODE":346.0043,"ARG_OF_PERICENTER":91.8544,"MEAN_ANOMALY":268.2761,"EPHEMERIS_TYPE":0,"CLASSIFICATION_TYPE":"U","NORAD_CAT_ID":50493,"ELEMENT_SET_NO":999,"REV_AT_EPOCH":21467,"BSTAR":8.7446e-05,"MEAN_MOTION_DOT":4.7e-07,"MEAN_MOTION_DDOT":0.0},{"OBJECT_NAME":"ONEWEB-0419","OBJECT_ID":"2021-132AB","EPOCH":"2026-04-25T02:14:12.019488","MEAN_MOTION":13.18666764,"ECCENTRICITY":0.0001473,"INCLINATION":87.9208,"RA_OF_ASC_NODE":346.0152,"ARG_OF_PERICENTER":82.3424,"MEAN_ANOMALY":277.7876,"EPHEMERIS_TYPE":0,"CLASSIFICATION_TYPE":"U","NORAD_CAT_ID":50494,"ELEMENT_SET_NO":999,"REV_AT_EPOCH":21458,"BSTAR":-8.7864e-05,"MEAN_MOTION_DOT":-2.2e-07,"MEAN_MOTION_DDOT":0.0},{"OBJECT_NAME":"ONEWEB-0420","OBJECT_ID":"2021-132AC","EPOCH":"2026-04-25T03:13:36.517152","MEAN_MOTION":13.18654357,"ECCENTRICITY":0.0001935,"INCLINATION":87.9196,"RA_OF_ASC_NODE":346.0154,"ARG_OF_PERICENTER":76.4376,"MEAN_ANOMALY":283.6972,"EPHEMERIS_TYPE":0,"CLASSIFICATION_TYPE":"U","NORAD_CAT_ID":50495,"ELEMENT_SET_NO":999,"REV_AT_EPOCH":21458,"BSTAR":-0.0009709,"MEAN_MOTION_DOT":-3.7e-06,"MEAN_MOTION_DDOT":0.0},{"OBJECT_NAME":"ONEWEB-0421","OBJECT_ID":"2021-132AD","EPOCH":"2026-04-25T03:04:03.032832","MEAN_MOTION":13.1868607,"ECCENTRICITY":0.0002,"INCLINATION":87.9205,"RA_OF_ASC_NODE":346.0114,"ARG_OF_PERICENTER":91.8281,"MEAN_ANOMALY":268.3081,"EPHEMERIS_TYPE":0,"CLASSIFICATION_TYPE":"U","NORAD_CAT_ID":50496,"ELEMENT_SET_NO":999,"REV_AT_EPOCH":21462,"BSTAR":0.00027035,"MEAN_MOTION_DOT":1.19e-06,"MEAN_MOTION_DDOT":0.0},{"OBJECT_NAME":"ONEWEB-0424","OBJECT_ID":"2021-132AE","EPOCH":"2026-04-25T02:07:22.363392","MEAN_MOTION":13.18565197,"ECCENTRICITY":0.0001442,"INCLINATION":87.9202,"RA_OF_ASC_NODE":346.0148,"ARG_OF_PERICENTER":81.337,"MEAN_ANOMALY":278.7926,"EPHEMERIS_TYPE":0,"CLASSIFICATION_TYPE":"U","NORAD_CAT_ID":50497,"ELEMENT_SET_NO":999,"REV_AT_EPOCH":21464,"BSTAR":-0.0012721,"MEAN_MOTION_DOT":-4.88e-06,"MEAN_MOTION_DDOT":0.0},{"OBJECT_NAME":"ONEWEB-0426","OBJECT_ID":"2021-132AF","EPOCH":"2026-04-25T04:48:27.851904","MEAN_MOTION":13.18690448,"ECCENTRICITY":0.0002002,"INCLINATION":87.9224,"RA_OF_ASC_NODE":345.982,"ARG_OF_PERICENTER":103.3141,"MEAN_ANOMALY":256.8214,"EPHEMERIS_TYPE":0,"CLASSIFICATION_TYPE":"U","NORAD_CAT_ID":50498,"ELEMENT_SET_NO":999,"REV_AT_EPOCH":21460,"BSTAR":0.00025816,"MEAN_MOTION_DOT":1.15e-06,"MEAN_MOTION_DDOT":0.0}]